CCSDS_OMM_VERS = 2.0
CREATION_DATE  = 
ORIGINATOR     = 

OBJECT_NAME    = SL-14 R/B
OBJECT_ID      = 1991-042B
CENTER_NAME    = EARTH
REF_FRAME      = TEME
TIME_SYSTEM    = UTC
MEAN_ELEMENT_THEORY = SGP/SGP4

EPOCH          = 2025-12-28T20:29:50.842752
MEAN_MOTION    = 14.81754351
ECCENTRICITY   = .00184988
INCLINATION    = 82.4937
RA_OF_ASC_NODE = 286.6135
ARG_OF_PERICENTER = 111.7995
MEAN_ANOMALY   = 248.5190

EPHEMERIS_TYPE = 0
CLASSIFICATION_TYPE = U
NORAD_CAT_ID   = 21423
ELEMENT_SET_NO = 999
REV_AT_EPOCH   = 84258
BSTAR          = .69806656E-4
MEAN_MOTION_DOT = .575E-5
MEAN_MOTION_DDOT = 0

CCSDS_OMM_VERS = 2.0
CREATION_DATE  = 
ORIGINATOR     = 

OBJECT_NAME    = ERS-1
OBJECT_ID      = 1991-050A
CENTER_NAME    = EARTH
REF_FRAME      = TEME
TIME_SYSTEM    = UTC
MEAN_ELEMENT_THEORY = SGP/SGP4

EPOCH          = 2025-12-28T22:24:40.469472
MEAN_MOTION    = 14.39378493
ECCENTRICITY   = .00328034
INCLINATION    = 98.7901
RA_OF_ASC_NODE = 14.3933
ARG_OF_PERICENTER = 53.4519
MEAN_ANOMALY   = 306.9680

EPHEMERIS_TYPE = 0
CLASSIFICATION_TYPE = U
NORAD_CAT_ID   = 21574
ELEMENT_SET_NO = 999
REV_AT_EPOCH   = 80555
BSTAR          = .18343521E-3
MEAN_MOTION_DOT = .528E-5
MEAN_MOTION_DDOT = 0

CCSDS_OMM_VERS = 2.0
CREATION_DATE  = 
ORIGINATOR     = 

OBJECT_NAME    = ARIANE 40 R/B
OBJECT_ID      = 1991-050F
CENTER_NAME    = EARTH
REF_FRAME      = TEME
TIME_SYSTEM    = UTC
MEAN_ELEMENT_THEORY = SGP/SGP4

EPOCH          = 2025-12-28T21:00:42.876864
MEAN_MOTION    = 14.42827323
ECCENTRICITY   = .00019933
INCLINATION    = 98.2144
RA_OF_ASC_NODE = 52.7220
ARG_OF_PERICENTER = 296.9343
MEAN_ANOMALY   = 63.1643

EPHEMERIS_TYPE = 0
CLASSIFICATION_TYPE = U
NORAD_CAT_ID   = 21610
ELEMENT_SET_NO = 999
REV_AT_EPOCH   = 80878
BSTAR          = .16619184E-3
MEAN_MOTION_DOT = .513E-5
MEAN_MOTION_DDOT = 0

CCSDS_OMM_VERS = 2.0
CREATION_DATE  = 
ORIGINATOR     = 

OBJECT_NAME    = INTERCOSMOS 25
OBJECT_ID      = 1991-086A
CENTER_NAME    = EARTH
REF_FRAME      = TEME
TIME_SYSTEM    = UTC
MEAN_ELEMENT_THEORY = SGP/SGP4

EPOCH          = 2025-12-28T19:36:58.248576
MEAN_MOTION    = 12.11792710
ECCENTRICITY   = .1486224
INCLINATION    = 82.6082
RA_OF_ASC_NODE = 352.8507
ARG_OF_PERICENTER = 269.7215
MEAN_ANOMALY   = 73.4090

EPHEMERIS_TYPE = 0
CLASSIFICATION_TYPE = U
NORAD_CAT_ID   = 21819
ELEMENT_SET_NO = 999
REV_AT_EPOCH   = 48810
BSTAR          = .41561499E-3
MEAN_MOTION_DOT = .2087E-4
MEAN_MOTION_DDOT = 0

CCSDS_OMM_VERS = 2.0
CREATION_DATE  = 
ORIGINATOR     = 

OBJECT_NAME    = SL-8 R/B
OBJECT_ID      = 1992-008B
CENTER_NAME    = EARTH
REF_FRAME      = TEME
TIME_SYSTEM    = UTC
MEAN_ELEMENT_THEORY = SGP/SGP4

EPOCH          = 2025-12-28T23:13:57.848160
MEAN_MOTION    = 13.75962764
ECCENTRICITY   = .00341542
INCLINATION    = 82.9276
RA_OF_ASC_NODE = 320.3756
ARG_OF_PERICENTER = 334.5362
MEAN_ANOMALY   = 86.4612

EPHEMERIS_TYPE = 0
CLASSIFICATION_TYPE = U
NORAD_CAT_ID   = 21876
ELEMENT_SET_NO = 999
REV_AT_EPOCH   = 69969
BSTAR          = .14588825E-3
MEAN_MOTION_DOT = .157E-5
MEAN_MOTION_DDOT = 0

CCSDS_OMM_VERS = 2.0
CREATION_DATE  = 
ORIGINATOR     = 

OBJECT_NAME    = SL-8 R/B
OBJECT_ID      = 1992-020B
CENTER_NAME    = EARTH
REF_FRAME      = TEME
TIME_SYSTEM    = UTC
MEAN_ELEMENT_THEORY = SGP/SGP4

EPOCH          = 2025-12-28T22:15:38.839104
MEAN_MOTION    = 13.75531773
ECCENTRICITY   = .00298704
INCLINATION    = 82.9289
RA_OF_ASC_NODE = 206.2965
ARG_OF_PERICENTER = 133.6423
MEAN_ANOMALY   = 341.6153

EPHEMERIS_TYPE = 0
CLASSIFICATION_TYPE = U
NORAD_CAT_ID   = 21938
ELEMENT_SET_NO = 999
REV_AT_EPOCH   = 69140
BSTAR          = .19724776E-3
MEAN_MOTION_DOT = .206E-5
MEAN_MOTION_DDOT = 0

CCSDS_OMM_VERS = 2.0
CREATION_DATE  = 
ORIGINATOR     = 

OBJECT_NAME    = USA 81
OBJECT_ID      = 1992-023A
CENTER_NAME    = EARTH
REF_FRAME      = TEME
TIME_SYSTEM    = UTC
MEAN_ELEMENT_THEORY = SGP/SGP4

EPOCH          = 2025-12-28T21:24:42.383808
MEAN_MOTION    = 14.32333465
ECCENTRICITY   = .0001099
INCLINATION    = 85.0083
RA_OF_ASC_NODE = 172.2604
ARG_OF_PERICENTER = 96.9289
MEAN_ANOMALY   = 263.2029

EPHEMERIS_TYPE = 0
CLASSIFICATION_TYPE = U
NORAD_CAT_ID   = 21949
ELEMENT_SET_NO = 999
REV_AT_EPOCH   = 8465
BSTAR          = .10734901E-3
MEAN_MOTION_DOT = .31E-5
MEAN_MOTION_DDOT = 0

CCSDS_OMM_VERS = 2.0
CREATION_DATE  = 
ORIGINATOR     = 

OBJECT_NAME    = COSMOS 2219
OBJECT_ID      = 1992-076A
CENTER_NAME    = EARTH
REF_FRAME      = TEME
TIME_SYSTEM    = UTC
MEAN_ELEMENT_THEORY = SGP/SGP4

EPOCH          = 2025-12-28T20:28:34.046112
MEAN_MOTION    = 14.14071310
ECCENTRICITY   = .00196395
INCLINATION    = 71.0589
RA_OF_ASC_NODE = 166.1485
ARG_OF_PERICENTER = 304.6714
MEAN_ANOMALY   = 55.2558

EPHEMERIS_TYPE = 0
CLASSIFICATION_TYPE = U
NORAD_CAT_ID   = 22219
ELEMENT_SET_NO = 999
REV_AT_EPOCH   = 70836
BSTAR          = .25284899E-3
MEAN_MOTION_DOT = .435E-5
MEAN_MOTION_DDOT = 0

CCSDS_OMM_VERS = 2.0
CREATION_DATE  = 
ORIGINATOR     = 

OBJECT_NAME    = SL-16 R/B
OBJECT_ID      = 1992-076B
CENTER_NAME    = EARTH
REF_FRAME      = TEME
TIME_SYSTEM    = UTC
MEAN_ELEMENT_THEORY = SGP/SGP4

EPOCH          = 2025-12-28T22:56:17.580192
MEAN_MOTION    = 14.16845938
ECCENTRICITY   = .00140078
INCLINATION    = 71.0011
RA_OF_ASC_NODE = 337.3722
ARG_OF_PERICENTER = 212.4401
MEAN_ANOMALY   = 211.0180

EPHEMERIS_TYPE = 0
CLASSIFICATION_TYPE = U
NORAD_CAT_ID   = 22220
ELEMENT_SET_NO = 999
REV_AT_EPOCH   = 71181
BSTAR          = -.23386033E-4
MEAN_MOTION_DOT = -.95E-6
MEAN_MOTION_DDOT = 0

CCSDS_OMM_VERS = 2.0
CREATION_DATE  = 
ORIGINATOR     = 

OBJECT_NAME    = COSMOS 2221
OBJECT_ID      = 1992-080A
CENTER_NAME    = EARTH
REF_FRAME      = TEME
TIME_SYSTEM    = UTC
MEAN_ELEMENT_THEORY = SGP/SGP4

EPOCH          = 2025-12-28T22:33:17.301312
MEAN_MOTION    = 14.95830717
ECCENTRICITY   = .00162767
INCLINATION    = 82.5043
RA_OF_ASC_NODE = 346.8180
ARG_OF_PERICENTER = 72.5229
MEAN_ANOMALY   = 287.7770

EPHEMERIS_TYPE = 0
CLASSIFICATION_TYPE = U
NORAD_CAT_ID   = 22236
ELEMENT_SET_NO = 999
REV_AT_EPOCH   = 77021
BSTAR          = .27351216E-3
MEAN_MOTION_DOT = .3087E-4
MEAN_MOTION_DDOT = 0

CCSDS_OMM_VERS = 2.0
CREATION_DATE  = 
ORIGINATOR     = 

OBJECT_NAME    = SL-16 R/B
OBJECT_ID      = 1992-093B
CENTER_NAME    = EARTH
REF_FRAME      = TEME
TIME_SYSTEM    = UTC
MEAN_ELEMENT_THEORY = SGP/SGP4

EPOCH          = 2025-12-28T20:34:08.770944
MEAN_MOTION    = 14.15435238
ECCENTRICITY   = .00027145
INCLINATION    = 71.0211
RA_OF_ASC_NODE = 152.9626
ARG_OF_PERICENTER = 23.4513
MEAN_ANOMALY   = 336.6733

EPHEMERIS_TYPE = 0
CLASSIFICATION_TYPE = U
NORAD_CAT_ID   = 22285
ELEMENT_SET_NO = 999
REV_AT_EPOCH   = 70313
BSTAR          = -.35925168E-4
MEAN_MOTION_DOT = -.118E-5
MEAN_MOTION_DDOT = 0

CCSDS_OMM_VERS = 2.0
CREATION_DATE  = 
ORIGINATOR     = 

OBJECT_NAME    = COSMOS 2228
OBJECT_ID      = 1992-094A
CENTER_NAME    = EARTH
REF_FRAME      = TEME
TIME_SYSTEM    = UTC
MEAN_ELEMENT_THEORY = SGP/SGP4

EPOCH          = 2025-12-28T22:27:05.580000
MEAN_MOTION    = 14.96810448
ECCENTRICITY   = .00179292
INCLINATION    = 82.5188
RA_OF_ASC_NODE = 305.0380
ARG_OF_PERICENTER = 174.4451
MEAN_ANOMALY   = 185.6974

EPHEMERIS_TYPE = 0
CLASSIFICATION_TYPE = U
NORAD_CAT_ID   = 22286
ELEMENT_SET_NO = 999
REV_AT_EPOCH   = 76547
BSTAR          = .31492363E-3
MEAN_MOTION_DOT = .3642E-4
MEAN_MOTION_DDOT = 0

