SL-14 R/B               
1 21423U 91042B   25362.85406068  .00000575  00000+0  69807-4 0  9993
2 21423  82.4937 286.6135 0018498 111.7995 248.5190 14.81754351842586
ERS-1                   
1 21574U 91050A   25362.93380173  .00000528  00000+0  18344-3 0  9993
2 21574  98.7901  14.3933 0032803  53.4519 306.9680 14.39378493805557
ARIANE 40 R/B           
1 21610U 91050F   25362.87549626  .00000513  00000+0  16619-3 0  9994
2 21610  98.2144  52.7220 0001993 296.9343  63.1643 14.42827323808786
INTERCOSMOS 25          
1 21819U 91086A   25362.81734084  .00002087  00000+0  41561-3 0  9994
2 21819  82.6082 352.8507 1486224 269.7215  73.4090 12.11792710488103
SL-8 R/B                
1 21876U 92008B   25362.96803065  .00000157  00000+0  14589-3 0  9990
2 21876  82.9276 320.3756 0034154 334.5362  86.4612 13.75962764699695
SL-8 R/B                
1 21938U 92020B   25362.92753286  .00000206  00000+0  19725-3 0  9990
2 21938  82.9289 206.2965 0029870 133.6423 341.6153 13.75531773691406
USA 81                  
1 21949U 92023A   25362.89215722  .00000310  00000+0  10735-3 0  9997
2 21949  85.0083 172.2604 0001099  96.9289 263.2029 14.32333465 84656
COSMOS 2219             
1 22219U 92076A   25362.85317183  .00000435  00000+0  25285-3 0  9990
2 22219  71.0589 166.1485 0019639 304.6714  55.2558 14.14071310708368
SL-16 R/B               
1 22220U 92076B   25362.95575903 -.00000095  00000+0 -23386-4 0  9994
2 22220  71.0011 337.3722 0014007 212.4401 211.0180 14.16845938711813
COSMOS 2221             
1 22236U 92080A   25362.93978358  .00003087  00000+0  27351-3 0  9992
2 22236  82.5043 346.8180 0016276  72.5229 287.7770 14.95830717770218
SL-16 R/B               
1 22285U 92093B   25362.85704596 -.00000118  00000+0 -35925-4 0  9993
2 22285  71.0211 152.9626 0002714  23.4513 336.6733 14.15435238703137
COSMOS 2228             
1 22286U 92094A   25362.93548125  .00003642  00000+0  31492-3 0  9995
2 22286  82.5188 305.0380 0017929 174.4451 185.6974 14.96810448765471
